COSMOS 2425 (716)       
1 29670U 06062A   19020.52902258  .00000025  00000-0  10000-3 0  9994
2 29670  65.1751 285.1867 0022960 345.2540 145.8323  2.13104855 93940
COSMOS 2426 (717)       
1 29671U 06062B   19020.42577479  .00000024  00000-0  10000-3 0  9996
2 29671  65.1920 285.2939 0016366 165.4416 100.6634  2.13103162 93941
COSMOS 2433 (720)       
1 32275U 07052A   19020.79361145 -.00000006  00000-0  10000-3 0  9992
2 32275  65.7874  46.0690 0005141 260.0328 264.5260  2.13104568 87465
COSMOS 2432 (719)       
1 32276U 07052B   19020.83702922 -.00000006  00000-0  10000-3 0  9990
2 32276  65.8001  46.1482 0012364 321.6289 187.6498  2.13103845 87469
COSMOS 2434 (721)       
1 32393U 07065A   19020.63425648  .00000027  00000-0  00000-0 0  9997
2 32393  64.7902 284.0548 0003073  88.0361 201.8457  2.13102982 86166
COSMOS 2436 (723)       
1 32395U 07065C   19020.56107936  .00000026  00000-0  10000-3 0  9991
2 32395  64.7995 284.1102 0016935 358.5536 286.7497  2.13104334 86098
COSMOS 2456 (730)       
1 36111U 09070A   19020.58312481  .00000038  00000-0  00000-0 0  9993
2 36111  64.1938 163.6711 0003012 347.6602  75.8102  2.13102877 70836
COSMOS 2457 (733)       
1 36112U 09070B   19020.68744851  .00000037  00000-0  00000-0 0  9994
2 36112  64.1764 163.5737 0006635 149.9565 119.3302  2.13101538 70835
COSMOS 2458 (734)       
1 36113U 09070C   19020.74702307  .00000037  00000-0  10000-3 0  9996
2 36113  64.1793 163.5834 0002986  52.4633 303.4775  2.13092405 70837
COSMOS 2459 (731)       
1 36400U 10007A   19020.53622065 -.00000005  00000-0  10000-3 0  9992
2 36400  65.6959  45.1138 0026511 345.7966 198.4243  2.13102182 69187
COSMOS 2461 (735)       
1 36401U 10007B   19020.55416896 -.00000005  00000-0  10000-3 0  9998
2 36401  65.6876  45.0852 0004488  56.8352  51.7002  2.13102094 69182
COSMOS 2460 (732)       
1 36402U 10007C   19020.75994641 -.00000006  00000-0  10000-3 0  9991
2 36402  65.6793  45.0437 0002319 265.8418  40.7806  2.13101600 69188
COSMOS 2464 (736)       
1 37139U 10041C   19020.66135630  .00000027  00000-0  00000-0 0  9990
2 37139  64.3930 283.7519 0025893  11.8762 166.2342  2.13097159 65256
COSMOS 2471 (701K)      
1 37372U 11009A   19020.82857322 -.00000007  00000-0  00000-0 0  9990
2 37372  65.6758  44.9850 0010181 237.6534 270.3031  2.13107697 61461
COSMOS 2474 (742)       
1 37829U 11055A   19020.71237310  .00000039  00000-0  00000-0 0  9999
2 37829  64.5170 164.4755 0006749 237.2551 142.4746  2.13101868 56837
COSMOS 2476 (744)       
1 37867U 11064A   19020.66009523  .00000039  00000-0  00000-0 0  9998
2 37867  64.4973 164.5335 0016749 235.9451 149.7707  2.13101933 56187
COSMOS 2477 (745)       
1 37868U 11064B   19020.52230637  .00000039  00000-0  00000-0 0  9996
2 37868  64.5052 164.5898 0014530 236.8736 221.9278  2.13101759 56130
COSMOS 2475 (743)       
1 37869U 11064C   19020.52307133  .00000039  00000-0  00000-0 0  9993
2 37869  64.5128 164.5862 0018324 264.7483 151.6042  2.13102006 56145
COSMOS 2485 (747)       
1 39155U 13019A   19020.68299189  .00000039  00000-0  00000-0 0  9993
2 39155  64.6660 164.6900 0017375 230.7472 217.3473  2.13101900 44650
COSMOS 2492 (754)       
1 39620U 14012A   19020.71929690 -.00000007  00000-0  10000-3 0  9995
2 39620  65.5683  44.8996 0015362 319.4797 191.4460  2.13103445 37606
COSMOS 2500 (755)       
1 40001U 14032A   19020.68035956 -.00000007  00000-0  00000-0 0  9997
2 40001  65.5094  44.8549 0007731 222.7862 120.0125  2.13102706 35817
COSMOS 2501 (702K)      
1 40315U 14075A   19020.72861527  .00000024  00000-0  00000-0 0  9996
2 40315  64.1141 284.8826 0015201 209.9848 329.2114  2.13098504 32222
COSMOS 2514 (751)       
1 41330U 16008A   19020.53840683 -.00000006  00000-0  00000-0 0  9992
2 41330  65.3116  44.8591 0011353 225.1937 190.0813  2.13103163 22981
COSMOS 2516 (753)       
1 41554U 16032A   19020.41618961  .00000024  00000-0  00000-0 0  9995
2 41554  64.3364 284.8192 0011675 224.2461 347.9926  2.13101756 20583
COSMOS 2522 (752)       
1 42939U 17055A   19020.48557586  .00000025  00000-0  00000-0 0  9992
2 42939  64.5677 284.8468 0007392 257.5692 234.3677  2.13102062 10348
